[{"OBJECT_NAME":"KUIPER-00081","OBJECT_ID":"2025-171A","EPOCH":"2026-03-09T12:27:51.030432","MEAN_MOTION":14.79979194,"ECCENTRICITY":5.129e-5,"INCLINATION":51.8988,"RA_OF_ASC_NODE":148.8267,"ARG_OF_PERICENTER":50.4141,"MEAN_ANOMALY":309.6867,"EPHEMERIS_TYPE":0,"CLASSIFICATION_TYPE":"U","NORAD_CAT_ID":65132,"ELEMENT_SET_NO":999,"REV_AT_EPOCH":3301,"BSTAR":0.00075497205,"MEAN_MOTION_DOT":5.545e-5,"MEAN_MOTION_DDOT":0},{"OBJECT_NAME":"CZ-6A DEB","OBJECT_ID":"2022-151YH","EPOCH":"2026-03-09T17:12:17.131680","MEAN_MOTION":14.7104784,"ECCENTRICITY":0.007557,"INCLINATION":98.6348,"RA_OF_ASC_NODE":132.1846,"ARG_OF_PERICENTER":223.9738,"MEAN_ANOMALY":135.5439,"EPHEMERIS_TYPE":0,"CLASSIFICATION_TYPE":"U","NORAD_CAT_ID":55535,"ELEMENT_SET_NO":999,"REV_AT_EPOCH":17055,"BSTAR":0.0024721517,"MEAN_MOTION_DOT":0.00015846,"MEAN_MOTION_DDOT":0}]
